satname,norad_id,inclination_deg,eccentricity,mean_motion_rev_per_day,perigee_km,apogee_km,l1,l2
STARLINK-1361,45567,53.0542,0.0001462,15.0644015,546.0760387349183,548.1009746730788,1 45567U 20025AN  25296.55298277  .00011750  00000+0  80552-3 0  9991,2 45567  53.0542 342.2478 0001462  95.7730 264.3425 15.06440150304708
STARLINK-1363,45568,53.0577,0.0001404,15.29115916,477.49119568023616,479.4165263940167,1 45568U 20025AP  25296.66671295  .01052659  00000+0  33671-1 0  9991,2 45568  53.0577 341.0233 0001404  72.8617 237.5451 15.29115916  5656
STARLINK-1366,45569,53.0533,0.0001147,15.32337816,468.0540102529576,469.62470662958367,1 45569U 20025AQ  25296.66671295  .01784402  00000+0  50658-1 0  9994,2 45569  53.0533 340.5140 0001147  84.1658  62.9406 15.32337816  5755
STARLINK-1376,45570,53.0553,0.0001511,15.0642779,546.0799796023693,548.1727941978907,1 45570U 20025AR  25296.54930649  .00007905  00000+0  54860-3 0  9990,2 45570  53.0553 342.2677 0001511  88.9116 271.2046 15.06427790304691
STARLINK-1320,45572,53.059,0.0009492,15.40845666,437.13697362358835,450.08738226299647,1 45572U 20025AT  25296.22865117  .00114447  00000+0  27127-2 0  9999,2 45572  53.0590 289.1231 0009492 340.6734  19.3908 15.40845666305434
STARLINK-1321,45573,53.0546,0.0001243,15.06420147,546.2889978225567,548.0106241237636,1 45573U 20025AU  25296.40279617  .00008150  00000+0  56509-3 0  9994,2 45573  53.0546 332.9234 0001243  86.2334 273.8798 15.06420147304518
STARLINK-1328,45576,53.0516,0.0010132,15.64971699,366.4795775329012,380.16073030960706,1 45576U 20025AX  25296.66671295  .00128246  00000+0  12658-2 0  9998,2 45576  53.0516 311.4169 0010132   5.5648 312.3261 15.64971699  5481
STARLINK-1331,45578,53.0548,0.0001711,15.06432381,545.9274064566325,548.2972267727782,1 45578U 20025AZ  25296.38067632  .00012657  00000+0  86635-3 0  9998,2 45578  53.0548 333.0230 0001711 101.0613 259.0569 15.06432381304828
STARLINK-1333,45580,53.0572,0.0001807,15.06412064,545.9231799593827,548.4259875657544,1 45580U 20025BB  25296.45347711  .00002088  00000+0  15901-3 0  9993,2 45580  53.0572 342.6952 0001807  77.7761 282.3431 15.06412064304681
STARLINK-1335,45581,53.0555,0.0001672,15.06436662,545.9412969753512,548.2570959594495,1 45581U 20025BC  25296.39172890  .00012906  00000+0  88288-3 0  9999,2 45581  53.0555 332.9752 0001672  72.9646 287.1526 15.06436662304815
STARLINK-1337,45582,53.0546,0.0001413,15.06414153,546.189635749166,548.146726993421,1 45582U 20025BD  25296.54653262  .00008116  00000+0  56290-3 0  9990,2 45582  53.0546 332.2800 0001413  78.7712 281.3436 15.06414153304833
STARLINK-1347,45586,53.0549,0.0005917,15.29898801,472.05888224643513,480.1702035222834,1 45586U 20025BH  25296.35791638  .00080853  00000+0  27365-2 0  9991,2 45586  53.0549 320.0338 0005917 316.9641  43.0895 15.29898801304981
STARLINK-1360,45588,53.0463,0.0006089,15.73323788,345.30887119527233,353.5016721737293,1 45588U 20025BK  25296.26458162  .00117067  00000+0  82174-3 0  9993,2 45588  53.0463 241.7020 0006089  92.4985 267.6730 15.73323788306084
STARLINK-1364,45589,53.0546,0.0001444,15.06415323,546.1645819978776,548.1646090986724,1 45589U 20025BL  25296.48389279  .00008291  00000+0  57462-3 0  9990,2 45589  53.0546 332.5644 0001444  95.6608 264.4545 15.06415323304827
STARLINK-1365,45590,53.0565,0.0001504,15.06410939,546.1364643008983,548.2195990624286,1 45590U 20025BM  25296.56590002  .00004366  00000+0  31171-3 0  9997,2 45590  53.0565   2.1922 0001504 103.5219 256.5938 15.06410939304436
STARLINK-1443,45660,53.0545,0.0001279,15.06434398,546.2203964315977,547.9918736255377,1 45660U 20035D   25296.35210576  .00012152  00000+0  83253-3 0  9998,2 45660  53.0545 323.1531 0001279  88.8882 271.2254 15.06434398298032
STARLINK-1446,45663,53.0291,6.8e-05,15.32754003,467.1343576228519,468.06537783686326,1 45663U 20035G   25296.24093800  .00072839  00000+0  22602-2 0  9996,2 45663  53.0291 288.1326 0000680 323.8866  36.2088 15.32754003298518
STARLINK-1448,45665,53.054,0.000132,15.06430586,546.2036842035968,548.0319514755074,1 45665U 20035J   25296.48848795  .00011932  00000+0  81787-3 0  9992,2 45665  53.0540 322.5366 0001320 100.2345 259.8793 15.06430586298047
STARLINK-1451,45668,53.0546,0.0001466,15.06427481,546.1120901603181,548.1425776630222,1 45668U 20035M   25296.35952146  .00011480  00000+0  78777-3 0  9990,2 45668  53.0546 323.4362 0001466 104.3055 255.8097 15.06427481298038
STARLINK-1452,45669,53.0408,0.0010243,15.25563598,482.0594741496543,496.1276827126294,1 45669U 20035N   25296.30715581  .00017317  00000+0  68437-3 0  9993,2 45669  53.0408 305.7636 0010243 346.9065  13.1665 15.25563598298274
STARLINK-1453,45670,53.0534,0.0001363,15.06409996,546.2370009746337,548.1248426401189,1 45670U 20035P   25296.30326988  .00005255  00000+0  37128-3 0  9995,2 45670  53.0534 293.3737 0001363 103.0194 257.0948 15.06409996298338
STARLINK-1454,45671,53.0544,0.0001461,15.06430595,546.1060105319257,548.1295699816392,1 45671U 20035Q   25296.44794088  .00010275  00000+0  70709-3 0  9991,2 45671  53.0544 322.7232 0001461  76.0666 284.0485 15.06430595298031
STARLINK-1456,45673,53.0539,0.0001425,15.06434294,546.1196065693166,548.0933009536384,1 45673U 20035S   25296.39634072  .00012538  00000+0  85834-3 0  9992,2 45673  53.0539 322.9577 0001425  83.1607 276.9544 15.06434294298042
STARLINK-1457,45674,53.0533,0.0001354,15.06422863,546.2038043152461,548.0791697295317,1 45674U 20035T   25296.60275125  .00007288  00000+0  50732-3 0  9992,2 45674  53.0533 322.0262 0001354 107.6755 252.4382 15.06422863298044
STARLINK-1458,45675,53.0535,0.0001537,15.06391542,546.1730505537216,548.3019106690626,1 45675U 20035U   25296.39267608  .00003932  00000+0  28280-3 0  9991,2 45675  53.0535 322.9641 0001537  80.1063 280.0100 15.06391542298007
STARLINK-1460,45676,53.054,0.0001431,15.06437747,546.1048704116738,548.0868720594208,1 45676U 20035V   25296.36316403  .00013029  00000+0  89105-3 0  9998,2 45676  53.0540 323.1011 0001431  78.0761 282.0388 15.06437747297997
STARLINK-1392,45677,53.0566,0.000151,15.06413109,546.1256594671395,548.2171025982116,1 45677U 20035W   25296.37421944  .00003648  00000+0  26360-3 0  9997,2 45677  53.0566 323.0545 0001510  92.4898 267.6264 15.06413109298030
STARLINK-1394,45679,53.0538,0.000127,15.06420925,546.2679154472144,548.026937691563,1 45679U 20035Y   25296.37145880  .00008738  00000+0  60441-3 0  9994,2 45679  53.0538 313.0640 0001270  95.0191 265.0943 15.06420925298179
STARLINK-1402,45685,53.0533,9.89e-05,15.2195237,499.2719050152664,500.6323910487481,1 45685U 20035AE  25296.66671295  .00974729  00000+0  38877-1 0  9995,2 45685  53.0533 305.5043 0000989  68.1213 266.3249 15.21952370  5794
STARLINK-1404,45686,53.0541,0.0001473,15.06425147,546.11439458721,548.1545795673037,1 45686U 20035AF  25296.33091769  .00010060  00000+0  69283-3 0  9998,2 45686  53.0541 313.2491 0001473  81.5817 278.5339 15.06425147298176
STARLINK-1413,45689,53.0547,0.0001401,15.06412193,546.2039523039575,548.144424498948,1 45689U 20035AJ  25296.34934747  .00005809  00000+0  40843-3 0  9990,2 45689  53.0547 313.1618 0001401  92.1644 267.9505 15.06412193298086
STARLINK-1417,45693,53.0546,0.0001514,15.06419768,546.1024839288866,548.1994611269683,1 45693U 20035AN  25296.34565789  .00007570  00000+0  52630-3 0  9995,2 45693  53.0546 313.1841 0001514  98.8662 261.2499 15.06419768298169
STARLINK-1420,45695,53.0535,0.0001515,15.06415404,546.115164145046,548.2135304532785,1 45695U 20035AQ  25296.28021117  .00007789  00000+0  54097-3 0  9993,2 45695  53.0535 293.4640 0001515  79.4506 280.6654 15.06415404298441
STARLINK-1422,45696,53.054,0.0001305,15.06396308,546.3191139461624,548.1266328731226,1 45696U 20035AR  25296.35673051  .00002398  00000+0  17985-3 0  9998,2 45696  53.0540 313.1323 0001305  94.7571 265.3567 15.06396308298168
STARLINK-1351,45697,53.0549,0.0001421,15.06404752,546.2129038204603,548.1810837414932,1 45697U 20035AS  25296.26640808  .00002220  00000+0  16784-3 0  9993,2 45697  53.0549 293.5367 0001421  95.7406 264.3745 15.06404752298445
STARLINK-1398,45699,53.0502,0.0002995,15.49028532,417.53077701391976,421.60260152379124,1 45699U 20035AU  25296.66671295  .00170191  00000+0  30311-2 0  9997,2 45699  53.0502 253.8334 0002995  70.1924  30.7686 15.49028532  5864
STARLINK-1400,45700,53.0541,0.0001561,15.06407668,546.107013481007,548.269099963717,1 45700U 20035AV  25296.37330235  .00000973  00000+0  84217-4 0  9990,2 45700  53.0541 293.0570 0001561  83.7428 276.3739 15.06407668298455
STARLINK-1403,45701,53.0541,0.0001519,15.06411332,546.1248720377516,548.2287823784582,1 45701U 20035AW  25296.27009177  .00004064  00000+0  29151-3 0  9998,2 45701  53.0541 293.5196 0001519  99.5731 260.5429 15.06411332298432
STARLINK-1407,45703,53.0405,0.0011477,15.39712539,439.1255105978198,454.79183520539846,1 45703U 20035AY  25296.31337546  .00124052  00000+0  30457-2 0  9999,2 45703  53.0405 253.9184 0011477  23.9176 336.2359 15.39712539299004
STARLINK-1411,45706,53.0529,0.0001889,15.38565493,449.06055714849754,451.6403597102917,1 45706U 20035BB  25296.66671295  .00016240  00000+0  42956-3 0  9999,2 45706  53.0529 279.3193 0001889  93.5360  45.0139 15.38565493  5864
STARLINK-1423,45710,53.0532,0.0001332,15.06409994,546.2584755890175,548.1033802850206,1 45710U 20035BF  25296.29589653  .00005330  00000+0  37633-3 0  9993,2 45710  53.0532 293.4055 0001332  93.1236 266.9905 15.06409994298449
STARLINK-1433,45711,53.0535,0.0001534,15.0642224,546.0810583672155,548.2057343928254,1 45711U 20035BG  25296.41015942  .00008226  00000+0  57013-3 0  9994,2 45711  53.0535 292.8901 0001534  81.4850 278.6313 15.06422240298455
STARLINK-1434,45712,53.0514,0.0004317,15.1471676,518.859866972788,524.8173058941147,1 45712U 20035BH  25296.28794382  .00050270  00000+0  26792-2 0  9997,2 45712  53.0514 290.0994 0004317  31.4775 328.6475 15.14716760298499
